[{"OBJECT_NAME":"YAOGAN-39 04A","OBJECT_ID":"2023-163A","EPOCH":"2026-03-06T06:05:45.530880","MEAN_MOTION":15.22966265,"ECCENTRICITY":0.00046272,"INCLINATION":34.9991,"RA_OF_ASC_NODE":272.0787,"ARG_OF_PERICENTER":162.7485,"MEAN_ANOMALY":197.3387,"EPHEMERIS_TYPE":0,"CLASSIFICATION_TYPE":"U","NORAD_CAT_ID":58141,"ELEMENT_SET_NO":999,"REV_AT_EPOCH":13187,"BSTAR":8.2738647e-5,"MEAN_MOTION_DOT":1.955e-5,"MEAN_MOTION_DDOT":0},{"OBJECT_NAME":"STARLINK-36151","OBJECT_ID":"2025-299X","EPOCH":"2026-03-09T22:00:01.999584","MEAN_MOTION":15.36387486,"ECCENTRICITY":0.00011462,"INCLINATION":42.9991,"RA_OF_ASC_NODE":167.613,"ARG_OF_PERICENTER":265.1086,"MEAN_ANOMALY":42.0682,"EPHEMERIS_TYPE":0,"CLASSIFICATION_TYPE":"U","NORAD_CAT_ID":67123,"ELEMENT_SET_NO":999,"REV_AT_EPOCH":590,"BSTAR":-0.062696381,"MEAN_MOTION_DOT":-0.02019994,"MEAN_MOTION_DDOT":0}]
